IRIDIUM 57              
1 25273U 98019B   25014.57212406  .00000504  00000+0  16775-3 0  9992
2 25273  86.3962 209.5566 0001958  91.2084 268.9337 14.35684620402749
IRIDIUM 63              
1 25286U 98021B   25014.43942978  .00000803  00000+0  26798-3 0  9996
2 25286  86.4023 146.6068 0002123  90.5540 269.5900 14.36319921401779
IRIDIUM 69              
1 25319U 98026A   25014.43489802  .00001064  00000+0  32738-3 0  9991
2 25319  86.4017 160.3444 0003321 136.0828 224.0635 14.40672276400923
IRIDIUM 71              
1 25320U 98026B   25014.46356248  .00000887  00000+0  27047-3 0  9992
2 25320  86.4016 155.0572 0001368 169.0306 191.0923 14.40904161401456
IRIDIUM 73              
1 25344U 98032C   25014.33472150  .00001098  00000+0  27061-3 0  9993
2 25344  86.4426 112.1723 0002481 108.4502 251.6973 14.51347464408242
IRIDIUM 82              
1 25467U 98051A   25014.47433704  .00029300  00000+0  10948-2 0  9998
2 25467  86.3725 184.6812 0103266 156.0869 204.5224 15.22256852400494
